CCSDS_OMM_VERS = 2.0
CREATION_DATE  = 
ORIGINATOR     = 

OBJECT_NAME    = GUOWANG GROUP 20 OBJECT G
OBJECT_ID      = 2026-047G
CENTER_NAME    = EARTH
REF_FRAME      = TEME
TIME_SYSTEM    = UTC
MEAN_ELEMENT_THEORY = SGP/SGP4

EPOCH          = 2026-03-17T06:38:44.941920
MEAN_MOTION    = 14.06047252
ECCENTRICITY   = .00073971
INCLINATION    = 50.0115
RA_OF_ASC_NODE = 39.5243
ARG_OF_PERICENTER = 285.3038
MEAN_ANOMALY   = 74.7050

EPHEMERIS_TYPE = 0
CLASSIFICATION_TYPE = U
NORAD_CAT_ID   = 68135
ELEMENT_SET_NO = 999
REV_AT_EPOCH   = 63
BSTAR          = .6517649E-5
MEAN_MOTION_DOT = -.142E-5
MEAN_MOTION_DDOT = 0

CCSDS_OMM_VERS = 2.0
CREATION_DATE  = 
ORIGINATOR     = 

OBJECT_NAME    = GUOWANG GROUP 20 OBJECT H
OBJECT_ID      = 2026-047H
CENTER_NAME    = EARTH
REF_FRAME      = TEME
TIME_SYSTEM    = UTC
MEAN_ELEMENT_THEORY = SGP/SGP4

EPOCH          = 2026-03-17T03:13:37.407936
MEAN_MOTION    = 14.06144330
ECCENTRICITY   = .00074925
INCLINATION    = 50.0094
RA_OF_ASC_NODE = 40.1007
ARG_OF_PERICENTER = 290.5420
MEAN_ANOMALY   = 69.4681

EPHEMERIS_TYPE = 0
CLASSIFICATION_TYPE = U
NORAD_CAT_ID   = 68136
ELEMENT_SET_NO = 999
REV_AT_EPOCH   = 60
BSTAR          = .6071499E-5
MEAN_MOTION_DOT = -.142E-5
MEAN_MOTION_DDOT = 0

CCSDS_OMM_VERS = 2.0
CREATION_DATE  = 
ORIGINATOR     = 

OBJECT_NAME    = GUOWANG GROUP 20 OBJECT J
OBJECT_ID      = 2026-047J
CENTER_NAME    = EARTH
REF_FRAME      = TEME
TIME_SYSTEM    = UTC
MEAN_ELEMENT_THEORY = SGP/SGP4

EPOCH          = 2026-03-17T06:37:43.592736
MEAN_MOTION    = 14.06272415
ECCENTRICITY   = .00058502
INCLINATION    = 50.0071
RA_OF_ASC_NODE = 39.5157
ARG_OF_PERICENTER = 285.8097
MEAN_ANOMALY   = 74.2163

EPHEMERIS_TYPE = 0
CLASSIFICATION_TYPE = U
NORAD_CAT_ID   = 68137
ELEMENT_SET_NO = 999
REV_AT_EPOCH   = 63
BSTAR          = .7380751E-5
MEAN_MOTION_DOT = -.14E-5
MEAN_MOTION_DDOT = 0

CCSDS_OMM_VERS = 2.0
CREATION_DATE  = 
ORIGINATOR     = 

OBJECT_NAME    = CZ-8A R/B
OBJECT_ID      = 2026-047K
CENTER_NAME    = EARTH
REF_FRAME      = TEME
TIME_SYSTEM    = UTC
MEAN_ELEMENT_THEORY = SGP/SGP4

EPOCH          = 2026-03-17T06:11:44.266272
MEAN_MOTION    = 14.12227857
ECCENTRICITY   = .004474
INCLINATION    = 49.9544
RA_OF_ASC_NODE = 39.3730
ARG_OF_PERICENTER = 164.4694
MEAN_ANOMALY   = 195.7597

EPHEMERIS_TYPE = 0
CLASSIFICATION_TYPE = U
NORAD_CAT_ID   = 68138
ELEMENT_SET_NO = 999
REV_AT_EPOCH   = 62
BSTAR          = -.36519566E-4
MEAN_MOTION_DOT = -.223E-5
MEAN_MOTION_DDOT = 0

CCSDS_OMM_VERS = 2.0
CREATION_DATE  = 
ORIGINATOR     = 

OBJECT_NAME    = SHIYAN-30 03
OBJECT_ID      = 2026-048A
CENTER_NAME    = EARTH
REF_FRAME      = TEME
TIME_SYSTEM    = UTC
MEAN_ELEMENT_THEORY = SGP/SGP4

EPOCH          = 2026-03-17T00:00:36.264672
MEAN_MOTION    = 14.92820153
ECCENTRICITY   = .00046544
INCLINATION    = 34.9995
RA_OF_ASC_NODE = 100.2235
ARG_OF_PERICENTER = 334.6165
MEAN_ANOMALY   = 25.4311

EPHEMERIS_TYPE = 0
CLASSIFICATION_TYPE = U
NORAD_CAT_ID   = 68139
ELEMENT_SET_NO = 999
REV_AT_EPOCH   = 59
BSTAR          = .23697359E-3
MEAN_MOTION_DOT = .2472E-4
MEAN_MOTION_DDOT = 0

CCSDS_OMM_VERS = 2.0
CREATION_DATE  = 
ORIGINATOR     = 

OBJECT_NAME    = SHIYAN-30 04
OBJECT_ID      = 2026-048B
CENTER_NAME    = EARTH
REF_FRAME      = TEME
TIME_SYSTEM    = UTC
MEAN_ELEMENT_THEORY = SGP/SGP4

EPOCH          = 2026-03-17T08:03:38.588256
MEAN_MOTION    = 14.91677936
ECCENTRICITY   = .00026056
INCLINATION    = 34.9909
RA_OF_ASC_NODE = 98.2290
ARG_OF_PERICENTER = 277.6095
MEAN_ANOMALY   = 82.4314

EPHEMERIS_TYPE = 0
CLASSIFICATION_TYPE = U
NORAD_CAT_ID   = 68140
ELEMENT_SET_NO = 999
REV_AT_EPOCH   = 64
BSTAR          = .19085534E-3
MEAN_MOTION_DOT = .1929E-4
MEAN_MOTION_DDOT = 0

CCSDS_OMM_VERS = 2.0
CREATION_DATE  = 
ORIGINATOR     = 

OBJECT_NAME    = CZ-2D R/B
OBJECT_ID      = 2026-048C
CENTER_NAME    = EARTH
REF_FRAME      = TEME
TIME_SYSTEM    = UTC
MEAN_ELEMENT_THEORY = SGP/SGP4

EPOCH          = 2026-03-17T07:50:51.167040
MEAN_MOTION    = 14.95523730
ECCENTRICITY   = .00152551
INCLINATION    = 35.1293
RA_OF_ASC_NODE = 98.3583
ARG_OF_PERICENTER = 30.7446
MEAN_ANOMALY   = 329.4153

EPHEMERIS_TYPE = 0
CLASSIFICATION_TYPE = U
NORAD_CAT_ID   = 68141
ELEMENT_SET_NO = 999
REV_AT_EPOCH   = 64
BSTAR          = .12713024E-3
MEAN_MOTION_DOT = .1407E-4
MEAN_MOTION_DDOT = 0

CCSDS_OMM_VERS = 2.0
CREATION_DATE  = 
ORIGINATOR     = 

OBJECT_NAME    = YAOGAN-50 02
OBJECT_ID      = 2026-051A
CENTER_NAME    = EARTH
REF_FRAME      = TEME
TIME_SYSTEM    = UTC
MEAN_ELEMENT_THEORY = SGP/SGP4

EPOCH          = 2026-03-16T16:05:34.496160
MEAN_MOTION    = 14.16075402
ECCENTRICITY   = .01485077
INCLINATION    = 141.9996
RA_OF_ASC_NODE = 239.7951
ARG_OF_PERICENTER = 128.5083
MEAN_ANOMALY   = 232.9054

EPHEMERIS_TYPE = 0
CLASSIFICATION_TYPE = U
NORAD_CAT_ID   = 68196
ELEMENT_SET_NO = 999
REV_AT_EPOCH   = 16
BSTAR          = .30371528E-4
MEAN_MOTION_DOT = .272E-5
MEAN_MOTION_DDOT = 0

CCSDS_OMM_VERS = 2.0
CREATION_DATE  = 
ORIGINATOR     = 

OBJECT_NAME    = CZ-6A R/B
OBJECT_ID      = 2026-051B
CENTER_NAME    = EARTH
REF_FRAME      = TEME
TIME_SYSTEM    = UTC
MEAN_ELEMENT_THEORY = SGP/SGP4

EPOCH          = 2026-03-17T07:50:01.249440
MEAN_MOTION    = 14.56351638
ECCENTRICITY   = .01854566
INCLINATION    = 142.0308
RA_OF_ASC_NODE = 243.7490
ARG_OF_PERICENTER = 104.6354
MEAN_ANOMALY   = 257.5022

EPHEMERIS_TYPE = 0
CLASSIFICATION_TYPE = U
NORAD_CAT_ID   = 68197
ELEMENT_SET_NO = 999
REV_AT_EPOCH   = 27
BSTAR          = .90587119E-4
MEAN_MOTION_DOT = .818E-5
MEAN_MOTION_DDOT = 0

CCSDS_OMM_VERS = 2.0
CREATION_DATE  = 
ORIGINATOR     = 

OBJECT_NAME    = 2026-052A
OBJECT_ID      = 2026-052A
CENTER_NAME    = EARTH
REF_FRAME      = TEME
TIME_SYSTEM    = UTC
MEAN_ELEMENT_THEORY = SGP/SGP4

EPOCH          = 2026-03-17T01:54:14.976864
MEAN_MOTION    = 15.09804425
ECCENTRICITY   = .00124128
INCLINATION    = 97.5387
RA_OF_ASC_NODE = 152.3170
ARG_OF_PERICENTER = 262.4488
MEAN_ANOMALY   = 97.5331

EPHEMERIS_TYPE = 0
CLASSIFICATION_TYPE = U
NORAD_CAT_ID   = 68198
ELEMENT_SET_NO = 999
REV_AT_EPOCH   = 14
BSTAR          = .64669327E-4
MEAN_MOTION_DOT = .983E-5
MEAN_MOTION_DDOT = 0

CCSDS_OMM_VERS = 2.0
CREATION_DATE  = 
ORIGINATOR     = 

OBJECT_NAME    = 2026-052B
OBJECT_ID      = 2026-052B
CENTER_NAME    = EARTH
REF_FRAME      = TEME
TIME_SYSTEM    = UTC
MEAN_ELEMENT_THEORY = SGP/SGP4

EPOCH          = 2026-03-17T01:54:06.156288
MEAN_MOTION    = 15.09979416
ECCENTRICITY   = .00115109
INCLINATION    = 97.5386
RA_OF_ASC_NODE = 152.3162
ARG_OF_PERICENTER = 264.1577
MEAN_ANOMALY   = 95.8340

EPHEMERIS_TYPE = 0
CLASSIFICATION_TYPE = U
NORAD_CAT_ID   = 68199
ELEMENT_SET_NO = 999
REV_AT_EPOCH   = 14
BSTAR          = .64200761E-4
MEAN_MOTION_DOT = .98E-5
MEAN_MOTION_DDOT = 0

CCSDS_OMM_VERS = 2.0
CREATION_DATE  = 
ORIGINATOR     = 

OBJECT_NAME    = 2026-052C
OBJECT_ID      = 2026-052C
CENTER_NAME    = EARTH
REF_FRAME      = TEME
TIME_SYSTEM    = UTC
MEAN_ELEMENT_THEORY = SGP/SGP4

EPOCH          = 2026-03-17T01:53:59.362656
MEAN_MOTION    = 15.10115575
ECCENTRICITY   = .00113114
INCLINATION    = 97.5392
RA_OF_ASC_NODE = 152.3171
ARG_OF_PERICENTER = 267.0179
MEAN_ANOMALY   = 92.9756

EPHEMERIS_TYPE = 0
CLASSIFICATION_TYPE = U
NORAD_CAT_ID   = 68200
ELEMENT_SET_NO = 999
REV_AT_EPOCH   = 13
BSTAR          = .63793595E-4
MEAN_MOTION_DOT = .977E-5
MEAN_MOTION_DDOT = 0

